NORAD_CAT_ID,OBJECT_NAME,OBJECT_TYPE,EPOCH,MEAN_MOTION,ECCENTRICITY,INCLINATION,RA_OF_ASC_NODE,ARG_OF_PERICENTER,MEAN_ANOMALY,BSTAR,MEAN_MOTION_DOT,MEAN_MOTION_DDOT,TLE_LINE0,TLE_LINE1,TLE_LINE2,SEMIMAJOR_AXIS,PERIOD,APOGEE,PERIGEE,DECAYED
53027.0,STARLINK-4158,PAYLOAD,2023-01-25 15:33:16,15.08842243,0.0001193999999999,53.2168,157.4826,76.2244,283.8881,6.4355e-05,7.37e-06,0.0,0 STARLINK-4158,1 53027U 22076AT  23025.64811330  .00000737  00000-0  64355-4 0  9996,2 53027  53.2168 157.4826 0001194  76.2244 283.8881 15.08842243 31501,6917.874,95.437,540.565,538.913,0.0
53027.0,STARLINK-4158,PAYLOAD,2023-01-26 13:48:40,15.08843651,0.0001363,53.2173,153.321,85.4194,274.6954,0.00013946,1.932e-05,0.0,0 STARLINK-4158,1 53027U 22076AT  23026.57547231  .00001932  00000-0  13946-3 0  9992,2 53027  53.2173 153.3210 0001363  85.4194 274.6954 15.08843651 31179,6917.869000000001,95.437,540.677,538.7909999999999,0.0
53027.0,STARLINK-4158,PAYLOAD,2023-01-27 00:56:22,15.08844046,0.0001205,53.2171,151.2382,87.5019,272.6111,7.1785e-05,8.55e-06,0.0,0 STARLINK-4158,1 53027U 22076AT  23027.03915025  .00000855  00000-0  71785-4 0  9993,2 53027  53.2171 151.2382 0001205  87.5019 272.6111 15.08844046 31710,6917.868,95.437,540.567,538.899,0.0
53027.0,STARLINK-4158,PAYLOAD,2023-01-27 13:39:28,15.08834035,0.0001288,53.2183,148.8618,103.8506,256.2629,7.6716e-05,9.33e-06,0.0,0 STARLINK-4158,1 53027U 22076AT  23027.56907855  .00000933  00000-0  76716-4 0  9999,2 53027  53.2183 148.8618 0001288 103.8506 256.2629 15.08834035 31798,6917.899,95.438,540.655,538.873,0.0
53027.0,STARLINK-4158,PAYLOAD,2023-01-28 13:30:15,15.08837316,0.0001861,53.2183,144.4027,112.5843,247.5346,3.5941e-05,2.84e-06,0.0,0 STARLINK-4158,1 53027U 22076AT  23028.56267944  .00000284  00000-0  35941-4 0  9992,2 53027  53.2183 144.4027 0001861 112.5843 247.5346 15.08837316 31471,6917.889,95.438,541.041,538.466,0.0
53027.0,STARLINK-4158,PAYLOAD,2023-01-28 16:41:01,15.088412,0.0001572,53.2185,143.8073,108.7811,251.3352,8.0944e-05,1e-05,0.0,0 STARLINK-4158,1 53027U 22076AT  23028.69515573  .00001000  00000-0  80944-4 0  9990,2 53027  53.2185 143.8073 0001572 108.7811 251.3352 15.08841200 31969,6917.877,95.437,540.829,538.654,0.0
53027.0,STARLINK-4158,PAYLOAD,2023-01-29 06:59:30,15.08831682,0.000107,53.2181,141.1295,99.3794,260.7319,5.5831e-05,6.01e-06,0.0,0 STARLINK-4158,1 53027U 22076AT  23029.29132302  .00000601  00000-0  55831-4 0  9995,2 53027  53.2181 141.1295 0001070  99.3794 260.7319 15.08831682 32051,6917.906,95.438,540.511,539.031,0.0
53027.0,STARLINK-4158,PAYLOAD,2023-01-29 14:56:25,15.08841228,8.55e-05,53.218,139.6408,93.2549,266.8541,8.796e-05,1.113e-05,0.0,0 STARLINK-4158,1 53027U 22076AT  23029.62251688  .00001113  00000-0  87960-4 0  9998,2 53027  53.2180 139.6408 0000855  93.2549 266.8541 15.08841228 32106,6917.877,95.437,540.333,539.15,0.0
53027.0,STARLINK-4158,PAYLOAD,2023-01-30 06:50:17,15.08833932,8.39e-05,53.2179,136.6676,93.3908,266.7181,6.2166e-05,7.02e-06,0.0,0 STARLINK-4158,1 53027U 22076AT  23030.28492315  .00000702  00000-0  62166-4 0  9990,2 53027  53.2179 136.6676 0000839  93.3908 266.7181 15.08833932 32203,6917.899,95.438,540.344,539.184,0.0
53027.0,STARLINK-4158,PAYLOAD,2023-01-30 11:36:26,15.08837497,8.44e-05,53.2176,135.7775,87.4221,272.6868,8.1919e-05,1.016e-05,0.0,0 STARLINK-4158,1 53027U 22076AT  23030.48364071  .00001016  00000-0  81919-4 0  9995,2 53027  53.2176 135.7775 0000844  87.4221 272.6868 15.08837497 31766,6917.888,95.438,540.337,539.169,0.0
53027.0,STARLINK-4158,PAYLOAD,2023-01-31 11:27:13,15.08826209,6.8e-05,53.2176,131.3173,91.6404,268.4666,0.00023524,3.457e-05,0.0,0 STARLINK-4158,1 53027U 22076AT  23031.47724488  .00003457  00000-0  23524-3 0  9995,2 53027  53.2176 131.3173 0000680  91.6404 268.4666 15.08826209 32385,6917.923,95.438,540.258,539.317,0.0
53027.0,STARLINK-4158,PAYLOAD,2023-01-31 16:13:22,15.08843933,7.01e-05,53.2166,130.4237,82.9595,277.1477,9.2899e-05,1.191e-05,0.0,0 STARLINK-4158,1 53027U 22076AT  23031.67595650  .00001191  00000-0  92899-4 0  9999,2 53027  53.2166 130.4237 0000701  82.9595 277.1477 15.08843933 32417,6917.868,95.437,540.218,539.248,0.0
53027.0,STARLINK-4158,PAYLOAD,2023-02-01 12:53:24,15.08779213,0.0001437,53.2164,126.5565,86.5252,273.5904,0.0009901,0.00015478,0.0,0 STARLINK-4158,1 53027U 22076AT  23032.53709206  .00015478  00000-0  99010-3 0  9993,2 53027  53.2164 126.5565 0001437  86.5252 273.5904 15.08779213 32078,6918.066,95.441,540.925,538.937,0.0
53027.0,STARLINK-4158,PAYLOAD,2023-02-02 14:19:34,15.08839245,0.0001092,53.217,121.7987,90.3394,269.7723,2.3177e-06,-2.51e-06,0.0,0 STARLINK-4158,1 53027U 22076AT  23033.59692295 -.00000251  00000-0  23177-5 0  9996,2 53027  53.2170 121.7987 0001092  90.3394 269.7723 15.08839245 32233,6917.883,95.438,540.503,538.992,0.0
53027.0,STARLINK-4158,PAYLOAD,2023-02-02 22:16:30,15.08834988,0.0001201,53.2181,120.312,73.8264,286.2861,-4.7483e-05,-1.043e-05,0.0,0 STARLINK-4158,1 53027U 22076AT  23033.92812843 -.00001043  00000-0 -47483-4 0  9992,2 53027  53.2181 120.3120 0001201  73.8264 286.2861 15.08834988 32756,6917.896,95.438,540.592,538.93,0.0
53027.0,STARLINK-4158,PAYLOAD,2023-02-03 09:24:12,15.08837214,0.000111,53.2168,118.2314,86.7438,273.3681,-2.9513e-05,-7.57e-06,0.0,0 STARLINK-4158,1 53027U 22076AT  23034.39180827 -.00000757  00000-0 -29513-4 0  9999,2 53027  53.2168 118.2314 0001110  86.7438 273.3681 15.08837214 32355,6917.889,95.438,540.522,538.986,0.0
53027.0,STARLINK-4158,PAYLOAD,2023-02-04 09:14:59,15.08836716,0.0001219,53.2177,113.7703,98.1452,261.9679,0.00010021,1.307e-05,0.0,0 STARLINK-4158,1 53027U 22076AT  23035.38540678  .00001307  00000-0  10021-3 0  9996,2 53027  53.2177 113.7703 0001219  98.1452 261.9679 15.08836716 32974,6917.89,95.438,540.599,538.912,0.0
53027.0,STARLINK-4158,PAYLOAD,2023-02-04 14:01:08,15.08844042,0.0001401,53.2183,112.8781,99.784,260.3311,0.000162,2.292e-05,0.0,0 STARLINK-4158,1 53027U 22076AT  23035.58412127  .00002292  00000-0  16200-3 0  9994,2 53027  53.2183 112.8781 0001401  99.7840 260.3311 15.08844042 32537,6917.868,95.437,540.702,538.764,0.0
53027.0,STARLINK-4158,PAYLOAD,2023-02-04 21:58:04,15.08842208,0.0001393,53.2183,111.3921,89.9639,270.1512,3.9652e-05,3.43e-06,0.0,0 STARLINK-4158,1 53027U 22076AT  23035.91532574  .00000343  00000-0  39652-4 0  9992,2 53027  53.2183 111.3921 0001393  89.9639 270.1512 15.08842208 32583,6917.874,95.437,540.702,538.775,0.0
53027.0,STARLINK-4158,PAYLOAD,2023-02-05 13:51:56,15.08834976,0.0001452,53.2175,108.4169,87.5328,272.583,1.8347e-05,4e-08,0.0,0 STARLINK-4158,1 53027U 22076AT  23036.57773442  .00000004  00000-0  18347-4 0  9998,2 53027  53.2175 108.4169 0001452  87.5328 272.5830 15.08834976 33156,6917.896,95.438,540.765,538.756,0.0
53027.0,STARLINK-4158,PAYLOAD,2023-02-05 21:48:51,15.08839285,0.0001478,53.2183,106.9326,91.9014,268.2147,3.7954e-05,3.16e-06,0.0,0 STARLINK-4158,1 53027U 22076AT  23036.90893204  .00000316  00000-0  37954-4 0  9995,2 53027  53.2183 106.9326 0001478  91.9014 268.2147 15.08839285 32736,6917.883,95.438,540.77,538.725,0.0
53027.0,STARLINK-4158,PAYLOAD,2023-02-06 10:31:55,15.08853454,0.0001252,53.2169,104.5545,96.1276,263.9859,6.5163e-05,7.5e-06,0.0,0 STARLINK-4158,1 53027U 22076AT  23037.43884197  .00000750  00000-0  65163-4 0  9990,2 53027  53.2169 104.5545 0001252  96.1276 263.9859 15.08853454 33281,6917.839,95.437,540.57,538.838,0.0
53027.0,STARLINK-4158,PAYLOAD,2023-02-06 12:07:18,15.08855231,0.0001298,53.2172,104.2578,89.0719,271.0422,0.00011068,1.475e-05,0.0,0 STARLINK-4158,1 53027U 22076AT  23037.50508017  .00001475  00000-0  11068-3 0  9991,2 53027  53.2172 104.2578 0001298  89.0719 271.0422 15.08855231 32821,6917.834,95.437,540.597,538.801,0.0
53027.0,STARLINK-4158,PAYLOAD,2023-02-06 13:42:41,15.0886205,0.0001248,53.2165,103.9595,97.9147,262.1986,0.00014899,2.085e-05,0.0,0 STARLINK-4158,1 53027U 22076AT  23037.57131420  .00002085  00000-0  14899-3 0  9991,2 53027  53.2165 103.9595 0001248  97.9147 262.1986 15.08862050 33303,6917.813,95.436,540.541,538.815,0.0
53027.0,STARLINK-4158,PAYLOAD,2023-02-07 13:33:28,15.08862084,0.0001348,53.2162,99.4991,80.181,279.9334,0.00039092,5.943e-05,0.0,0 STARLINK-4158,1 53027U 22076AT  23038.56491604  .00005943  00000-0  39092-3 0  9992,2 53027  53.2162  99.4991 0001348  80.1810 279.9334 15.08862084 33457,6917.813,95.436,540.61,538.745,0.0
53027.0,STARLINK-4158,PAYLOAD,2023-02-07 21:30:25,15.08845345,0.0001444,53.2155,98.0125,79.1416,280.9739,0.00013104,1.798e-05,0.0,0 STARLINK-4158,1 53027U 22076AT  23038.89612415  .00001798  00000-0  13104-3 0  9993,2 53027  53.2155  98.0125 0001444  79.1416 280.9739 15.08845345 33508,6917.864,95.437,540.728,538.73,0.0
53027.0,STARLINK-4158,PAYLOAD,2023-02-08 10:13:29,15.08846986,0.0001323,53.216,95.6318,103.4476,256.6664,6.2542e-05,7.08e-06,0.0,0 STARLINK-4158,1 53027U 22076AT  23039.42604090  .00000708  00000-0  62542-4 0  9994,2 53027  53.2160  95.6318 0001323 103.4476 256.6664 15.08846986 33110,6917.859,95.437,540.639,538.809,0.0
53027.0,STARLINK-4158,PAYLOAD,2023-02-08 13:24:15,15.08854956,0.0001403,53.2168,95.0376,109.4621,250.6523,0.00036183,5.478e-05,0.0,0 STARLINK-4158,1 53027U 22076AT  23039.55851828  .00005478  00000-0  36183-3 0  9991,2 53027  53.2168  95.0376 0001403 109.4621 250.6523 15.08854956 33139,6917.835,95.437,540.67,538.729,0.0
53027.0,STARLINK-4158,PAYLOAD,2023-02-09 06:53:31,15.08841514,0.0001244,53.2148,91.7665,86.2377,273.8757,0.00045967,7.036e-05,0.0,0 STARLINK-4158,1 53027U 22076AT  23040.28716739  .00007036  00000-0  45967-3 0  9996,2 53027  53.2148  91.7665 0001244  86.2377 273.8757 15.08841514 33710,6917.876,95.437,540.601,538.88,0.0
53027.0,STARLINK-4158,PAYLOAD,2023-02-09 10:04:17,15.08849515,0.0001374,53.2157,91.1705,90.1076,270.0074,0.00094374,0.00014767,0.0,0 STARLINK-4158,1 53027U 22076AT  23040.41964736  .00014767  00000-0  94374-3 0  9998,2 53027  53.2157  91.1705 0001374  90.1076 270.0074 15.08849515 33263,6917.851,95.437,540.667,538.766,0.0
